HAWK-2C                 
1 47502U 21006CT  26068.67595434  .00008129  00000+0  25493-3 0  9997
2 47502  97.2417 114.9961 0006943 184.0877 176.0310 15.33286436284247
STARLINK-35503          
1 66245U 25245M   26068.82785589  .00028955  00000+0  98558-3 0  9991
2 66245  53.1577 283.5394 0001144 108.4847 251.6278 15.30211126 21229
